STARLINK-5416
1 54855U 22177AM  26092.75131652  .00024518  00000+0  91491-3 0  9991
2 54855  43.0010 345.4283 0001346 316.0766  43.9978 15.26947850180779
